STARLINK-35991          
1 66861U 25281P   26049.17004107  .00026345  00000+0  96292-3 0  9996
2 66861  43.0004  93.4108 0001611 180.9632 179.1217 15.27598682 13200
STARLINK-35974          
1 66862U 25281Q   26049.19189315  .00028849  00000+0  10525-2 0  9999
2 66862  43.0120  93.5943 0006346 305.9023  54.1239 15.27605876 13201
STARLINK-36134          
1 66863U 25281R   26049.15976332  .00026421  00000+0  96558-3 0  9994
2 66863  43.0013  93.3384 0001252 174.1780 185.9086 15.27601592 13201
STARLINK-36070          
1 66864U 25281S   26049.14577684  .00028833  00000+0  10525-2 0  9999
2 66864  42.9984  94.0944 0000670 202.6630 157.4192 15.27601778 13197
STARLINK-36117          
1 66865U 25281T   26049.16747821  .00021347  00000+0  78303-3 0  9996
2 66865  42.9986  93.3922 0001023 229.3847 130.6916 15.27579596 13208
STARLINK-36126          
1 66866U 25281U   26048.17654701  .00026077  00000+0  95348-3 0  9994
2 66866  42.9964  99.7232 0000722 275.4016  84.6753 15.27590516 13037
STARLINK-36101          
1 66867U 25281V   26049.15349110  .00025893  00000+0  94691-3 0  9994
2 66867  42.9991  94.1544 0001980 279.9074  80.1554 15.27588015 13180
STARLINK-36108          
1 66868U 25281W   26049.14962663  .00023646  00000+0  86596-3 0  9997
2 66868  42.9971  94.1209 0001650 276.8075  83.2589 15.27582053 13186
STARLINK-36092          
1 66869U 25281X   26048.16240935  .00041278  00000+0  15002-2 0  9994
2 66869  42.9953  99.6104 0000752 242.7499 117.3276 15.27601480 13037
STARLINK-36114          
1 66870U 25281Y   26049.20473798  .00026738  00000+0  97759-3 0  9991
2 66870  42.9944  93.6713 0001508 236.5071 123.5636 15.27580931 13199
STARLINK-36095          
1 66871U 25281Z   26048.15469958  .00034339  00000+0  12511-2 0  9996
2 66871  43.0002  99.5533 0001367 265.6547  94.4148 15.27593483 13028
STARLINK-36082          
1 66872U 25281AA  26049.19702854  .00024583  00000+0  89950-3 0  9999
2 66872  42.9994  93.6154 0001154 237.7951 122.2789 15.27593987 13192
STARLINK-36128          
1 66873U 25281AB  26049.12136264  .00028555  00000+0  10425-2 0  9992
2 66873  43.0002  93.9058 0002637 288.4263  71.6302 15.27598676 13139
STARLINK-36129          
1 66874U 25281AC  26049.19317702  .00027130  00000+0  99114-3 0  9999
2 66874  42.9992  93.5870 0003330 300.0746  59.9776 15.27597447 13197
STARLINK-36053          
1 66875U 25281AD  26049.18288856  .00027229  00000+0  99487-3 0  9998
2 66875  42.9984  93.5026 0001714 183.3396 176.7444 15.27595022 13141
STARLINK-35702          
1 66876U 25281AE  26049.18932021  .00020013  00000+0  73479-3 0  9996
2 66876  43.0011  93.5567 0001261 258.9716 101.0994 15.27579785 13191
STARLINK-35866          
1 66878U 25283A   26048.42927530  .00006757  00000+0  24031-3 0  9994
2 66878  53.1590 118.1741 0001300  91.2416 268.8733 15.30166311 12748
STARLINK-35749          
1 66879U 25283B   26048.48296344 -.00010249  00000+0 -33429-3 0  9997
2 66879  53.1595 117.8033 0002194  41.2170 318.8996 15.30206197 12753
STARLINK-35844          
1 66880U 25283C   26049.20671628  .00020414  00000+0  69912-3 0  9991
2 66880  53.1595 114.4992 0001685 100.3454 259.7737 15.30215800 12867
STARLINK-35860          
1 66881U 25283D   26049.19510680  .00021512  00000+0  73624-3 0  9995
2 66881  53.1576 114.4170 0001196  92.0935 268.0202 15.30204599 12866
STARLINK-35912          
1 66882U 25283E   26049.18466897  .00025903  00000+0  88345-3 0  9999
2 66882  53.1607 115.0694 0001519  84.4279 275.6895 15.30206751 12858
STARLINK-35947          
1 66883U 25283F   26049.18255766  .00022813  00000+0  78077-3 0  9999
2 66883  53.1604 115.0535 0001558 108.3187 251.7983 15.30168046 12876
STARLINK-36057          
1 66884U 25283G   26049.17622427  .00015583  00000+0  53715-3 0  9999
2 66884  53.1609 115.0103 0001483 125.2076 234.9064 15.30200279 12851
STARLINK-35954          
1 66885U 25283H   26049.17939049  .00019849  00000+0  68034-3 0  9990
2 66885  53.1613 115.0355 0001563 100.2122 259.9055 15.30207744 12851
STARLINK-35900          
1 66886U 25283J   26048.38506110  .00025032  00000+0  85485-3 0  9992
2 66886  53.1610 118.6078 0001085  71.7494 288.3625 15.30184170 12736
STARLINK-35925          
1 66887U 25283K   26049.16567005  .00023673  00000+0  80944-3 0  9994
2 66887  53.1605 114.9462 0001265  74.6999 285.4142 15.30175895 12858
STARLINK-35919          
1 66888U 25283L   26048.50935795  .00021322  00000+0  73015-3 0  9997
2 66888  53.1612 117.9629 0001240  70.3946 289.7188 15.30191535 12758
STARLINK-35852          
1 66889U 25283M   26049.15934153  .00021622  00000+0  73983-3 0  9994
2 66889  53.1606 114.9076 0001574  64.1459 295.9704 15.30208584 12852
STARLINK-35885          
1 66890U 25283N   26049.15617473  .00024048  00000+0  82120-3 0  9997
2 66890  53.1593 114.8854 0001315  66.7254 293.3885 15.30209390 12854
STARLINK-35855          
1 66891U 25283P   26049.15300767  .00025288  00000+0  86275-3 0  9995
2 66891  53.1585 114.8667 0001128  78.3824 281.7303 15.30210607 12851
STARLINK-35883          
1 66892U 25283Q   26048.62732413  .00020091  00000+0  68850-3 0  9990
2 66892  53.1587 117.2720 0001368  62.9532 297.1609 15.30205299 12774
STARLINK-36033          
1 66893U 25283R   26049.19205479  .00018711  00000+0  64213-3 0  9996
2 66893  53.1601 115.1131 0001520  67.7783 292.3379 15.30206537 12852
STARLINK-35718          
1 66894U 25283S   26049.20882478  .00023181  00000+0  79217-3 0  9996
2 66894  53.1583 114.5015 0001605 109.1600 250.9574 15.30207519 12868
STARLINK-35971          
1 66895U 25283T   26048.46303849  .00032722  00000+0  11123-2 0  9996
2 66895  53.1607 118.3820 0001317  75.6454 284.4693 15.30191685 12743
STARLINK-35791          
1 66896U 25283U   26049.19827611  .00021570  00000+0  73823-3 0  9991
2 66896  53.1583 114.4373 0001461  48.7049 311.4078 15.30202270 12862
STARLINK-36079          
1 66897U 25283V   26049.17516921  .00017990  00000+0  61795-3 0  9995
2 66897  53.1602 115.0058 0001901  94.1735 265.9483 15.30205392 12847
STARLINK-36065          
1 66898U 25283W   26048.45459415  .00032175  00000+0  10933-2 0  9999
2 66898  53.1616 118.3300 0000754 124.7883 235.3189 15.30215034 12745
STARLINK-36064          
1 66899U 25283X   26049.17094672  .00014929  00000+0  51511-3 0  9995
2 66899  53.1611 114.9735 0001647 131.9378 228.1764 15.30203698 12850
STARLINK-36074          
1 66900U 25283Y   26049.16778247  .00017349  00000+0  59641-3 0  9995
2 66900  53.1617 114.9594 0001276  82.3459 277.7687 15.30206110 12855
STARLINK-36043          
1 66901U 25283Z   26049.16145993  .00018263  00000+0  62741-3 0  9993
2 66901  53.1608 114.9166 0001780  59.3606 300.7570 15.30190718 12853
STARLINK-35983          
1 66902U 25283AA  26048.57045116  .00027252  00000+0  92921-3 0  9995
2 66902  53.1604 117.6279 0001162  86.2026 273.9108 15.30187811 12762
STARLINK-36077          
1 66903U 25283AB  26048.50196824  .00020401  00000+0  69891-3 0  9991
2 66903  53.1597 117.9116 0000846 173.5666 186.5345 15.30205255 12759
STARLINK-36059          
1 66904U 25283AC  26049.15195191  .00023349  00000+0  79776-3 0  9997
2 66904  53.1592 114.8573 0001245  91.9784 268.1360 15.30209694 12852
STARLINK-36075          
1 66905U 25283AD  26049.19099910  .00021366  00000+0  73137-3 0  9996
2 66905  53.1602 115.1028 0001419  92.0492 268.0671 15.30202128 12854
DUPLEX                  
1 66906U 98067XS  26048.54149847  .00033568  00000+0  49956-3 0  9999
2 66906  51.6299 170.1197 0001433  66.3998 293.7143 15.54812852 11999
ISS OBJECT XT           
1 66907U 98067XT  26049.31427830  .00107185  00000+0  11114-2 0  9998
2 66907  51.6273 164.0257 0002958 331.7248  28.3585 15.63831808 12143
ISS OBJECT XU           
1 66908U 98067XU  26049.31347025  .00108970  00000+0  11274-2 0  9996
2 66908  51.6265 164.0174 0002793 337.2696  22.8174 15.63880573 12144
SILVERSAT               
1 66909U 98067XV  26048.57639726  .00121901  00000+0  11824-2 0  9996
2 66909  51.6276 167.3464 0003330 324.3396  35.7377 15.65453016 12033
ISS OBJECT XW           
1 66910U 98067XW  26049.30438970  .00098080  00000+0  10259-2 0  9990
2 66910  51.6264 163.9525 0002979 350.7388   9.3551 15.63650650 12148
ISS OBJECT XX           
1 66911U 98067XX  26049.30372316  .00150532  00000+0  13490-2 0  9993
2 66911  51.6244 163.1938 0004952 343.5317  16.5518 15.67305716 12149
ISS OBJECT XY           
1 66912U 98067XY  26048.55361185  .00067824  00000+0  81767-3 0  9996
2 66912  51.6291 168.6991 0000932 354.2320   5.8663 15.60143157 12007
2025-284A               
1 66913U 25284A   26049.24793748  .00000157  00000+0  10560-3 0  9998
2 66913  80.4032  53.4577 0010838 194.3888 165.6966 13.97308328 10875
2025-284B               
1 66914U 25284B   26049.25387861  .00000157  00000+0  10538-3 0  9990
2 66914  80.3955  53.4174 0011063 192.0702 168.0195 13.97289155 10870
HULIANWANG DIGUI-105    
1 66915U 25285A   26047.27295330 -.00000075  00000+0  92731-4 0  9997
2 66915  50.0007 220.3841 0001470 106.1086 253.9954 13.43548355  9967
HULIANWANG DIGUI-106    
1 66916U 25285B   26047.04310212 -.00499290  00000+0 -90124+0 0  9991
2 66916  50.0023 221.1862 0005128 345.0188  15.0538 13.43564366  9931
HULIANWANG DIGUI-107    
1 66917U 25285C   26048.67299037 -.00000092  00000+0  65307-4 0  9990
2 66917  50.0018 215.0837 0001441 309.3270  50.7480 13.41939504 10155
HULIANWANG DIGUI-108    
1 66918U 25285D   26048.36798486 -.00000113  00000+0  27710-4 0  9999
2 66918  50.0032 216.1706 0000277 160.5611 199.5278 13.42751359 10115
HULIANWANG DIGUI-109    
1 66919U 25285E   26048.65868424 -.00000089  00000+0  70448-4 0  9990
2 66919  50.0094 215.0623 0000544 293.1844  66.8976 13.42201109 10167
HULIANWANG DIGUI-110    
1 66920U 25285F   26048.65141620 -.00000075  00000+0  94198-4 0  9997
2 66920  50.0118 215.0310 0000216 220.9933 139.0928 13.42385673 10150
